[{"OBJECT_NAME":"STARLINK-30773","OBJECT_ID":"2023-166M","EPOCH":"2026-03-09T17:10:13.084608","MEAN_MOTION":15.30190199,"ECCENTRICITY":9.712e-5,"INCLINATION":53.1593,"RA_OF_ASC_NODE":219.4473,"ARG_OF_PERICENTER":52.9742,"MEAN_ANOMALY":307.1347,"EPHEMERIS_TYPE":0,"CLASSIFICATION_TYPE":"U","NORAD_CAT_ID":58161,"ELEMENT_SET_NO":999,"REV_AT_EPOCH":13318,"BSTAR":0.00021136249,"MEAN_MOTION_DOT":5.904e-5,"MEAN_MOTION_DDOT":0},{"OBJECT_NAME":"TRANSPORTER-12 OBJECT AZ","OBJECT_ID":"2025-009AZ","EPOCH":"2026-03-09T17:02:46.667040","MEAN_MOTION":15.30349724,"ECCENTRICITY":9.87e-5,"INCLINATION":97.3981,"RA_OF_ASC_NODE":151.9913,"ARG_OF_PERICENTER":45.3581,"MEAN_ANOMALY":314.774,"EPHEMERIS_TYPE":0,"CLASSIFICATION_TYPE":"U","NORAD_CAT_ID":62656,"ELEMENT_SET_NO":999,"REV_AT_EPOCH":6379,"BSTAR":0.00054902545,"MEAN_MOTION_DOT":0.00016057,"MEAN_MOTION_DDOT":0}]
